NORAD_CAT_ID,OBJECT_NAME,OBJECT_TYPE,EPOCH,MEAN_MOTION,ECCENTRICITY,INCLINATION,RA_OF_ASC_NODE,ARG_OF_PERICENTER,MEAN_ANOMALY,BSTAR,MEAN_MOTION_DOT,MEAN_MOTION_DDOT,TLE_LINE0,TLE_LINE1,TLE_LINE2,SEMIMAJOR_AXIS,PERIOD,APOGEE,PERIGEE,DECAYED
52878.0,STARLINK-4171,PAYLOAD,2023-04-20 06:32:29,15.08843151,0.0001093,53.2183,67.5787,96.3511,263.7606,0.0001005,1.312e-05,0.0,0 STARLINK-4171,1 52878U 22062BA  23110.27256688  .00001312  00000-0  10050-3 0  9999,2 52878  53.2183  67.5787 0001093  96.3511 263.7606 15.08843151 47379,6917.871,95.437,540.492,538.98,0.0
52878.0,STARLINK-4171,PAYLOAD,2023-04-20 14:29:26,15.0883464,0.0001203,53.2193,66.0926,86.6095,273.5034,2.6384e-05,1.32e-06,0.0,0 STARLINK-4171,1 52878U 22062BA  23110.60377469  .00000132  00000-0  26384-4 0  9994,2 52878  53.2193  66.0926 0001203  86.6095 273.5034 15.08834640 47424,6917.897,95.438,540.594,538.93,0.0
52878.0,STARLINK-4171,PAYLOAD,2023-04-21 03:12:31,15.08836231,0.0001138,53.2181,63.7149,94.5798,265.5324,-5.2893e-05,-1.129e-05,0.0,0 STARLINK-4171,1 52878U 22062BA  23111.13369808 -.00001129  00000-0 -52893-4 0  9994,2 52878  53.2181  63.7149 0001138  94.5798 265.5324 15.08836231 47013,6917.892,95.438,540.544,538.97,0.0
52878.0,STARLINK-4171,PAYLOAD,2023-04-22 03:03:19,15.0883478,0.0001236,53.2185,59.2567,81.1742,278.939,-2.5496e-05,-6.94e-06,0.0,0 STARLINK-4171,1 52878U 22062BA  23112.12730575 -.00000694  00000-0 -25496-4 0  9992,2 52878  53.2185  59.2567 0001236  81.1742 278.9390 15.08834780 47659,6917.896,95.438,540.616,538.906,0.0
52878.0,STARLINK-4171,PAYLOAD,2023-04-22 23:43:18,15.08839775,0.0001461,53.2186,55.3806,132.334,227.7777,0.00013288,1.827e-05,0.0,0 STARLINK-4171,1 52878U 22062BA  23112.98840744  .00001827  00000-0  13288-3 0  9998,2 52878  53.2186  55.3806 0001461 132.3340 227.7777 15.08839775 47780,6917.881,95.438,540.757,538.735,0.0
52878.0,STARLINK-4171,PAYLOAD,2023-04-23 01:18:41,15.08842319,0.0001441,53.2185,55.0835,126.904,233.2084,0.00012516,1.705e-05,0.0,0 STARLINK-4171,1 52878U 22062BA  23113.05464694  .00001705  00000-0  12516-3 0  9991,2 52878  53.2185  55.0835 0001441 126.9040 233.2084 15.08842319 47301,6917.873,95.437,540.735,538.741,0.0
52878.0,STARLINK-4171,PAYLOAD,2023-04-23 02:54:04,15.08847278,9.78e-05,53.2183,54.7865,122.3085,237.8002,6.4879e-05,7.45e-06,0.0,0 STARLINK-4171,1 52878U 22062BA  23113.12088477  .00000745  00000-0  64879-4 0  9993,2 52878  53.2183  54.7865 0000978 122.3085 237.8002 15.08847278 47311,6917.858,95.437,540.4,539.047,0.0
52878.0,STARLINK-4171,PAYLOAD,2023-04-24 02:44:51,15.08858857,0.0001433,53.2204,50.3422,121.8076,238.3056,1.2685e-05,-8.6e-07,0.0,0 STARLINK-4171,1 52878U 22062BA  23114.11447935 -.00000086  00000-0  12685-4 0  9998,2 52878  53.2204  50.3422 0001433 121.8076 238.3056 15.08858857 47957,6917.823,95.436,540.679,538.696,0.0
52878.0,STARLINK-4171,PAYLOAD,2023-04-25 05:46:23,15.08863464,0.0001018,53.2179,45.2825,107.3921,252.7183,0.00054866,8.46e-05,0.0,0 STARLINK-4171,1 52878U 22062BA  23115.24054437  .00008460  00000-0  54866-3 0  9993,2 52878  53.2179  45.2825 0001018 107.3921 252.7183 15.08863464 47631,6917.809,95.436,540.378,538.969,0.0
52878.0,STARLINK-4171,PAYLOAD,2023-04-26 02:26:26,15.0881044,0.0001087,53.2177,41.4157,109.8349,250.276,-0.00053427,-8.774e-05,0.0,0 STARLINK-4171,1 52878U 22062BA  23116.10169800 -.00008774  00000-0 -53427-3 0  9992,2 52878  53.2177  41.4157 0001087 109.8349 250.2760 15.08810440 47766,6917.971,95.439,540.588,539.084,0.0
52878.0,STARLINK-4171,PAYLOAD,2023-04-27 03:52:36,15.08838808,0.0001242,53.219,36.6568,112.3198,247.7926,-7.0381e-05,-1.408e-05,0.0,0 STARLINK-4171,1 52878U 22062BA  23117.16153876 -.00001408  00000-0 -70381-4 0  9991,2 52878  53.2190  36.6568 0001242 112.3198 247.7926 15.08838808 48413,6917.884,95.438,540.608,538.89,0.0
52878.0,STARLINK-4171,PAYLOAD,2023-04-28 03:43:22,15.08854445,0.0001104,53.2185,32.1963,122.7125,237.3974,0.00056502,8.719e-05,0.0,0 STARLINK-4171,1 52878U 22062BA  23118.15512319  .00008719  00000-0  56502-3 0  9990,2 52878  53.2185  32.1963 0001104 122.7125 237.3974 15.08854445 48568,6917.836,95.437,540.465,538.938,0.0
52878.0,STARLINK-4171,PAYLOAD,2023-04-28 11:40:19,15.08833937,0.0001097,53.218,30.7127,98.8673,261.2443,0.00034147,5.15e-05,0.0,0 STARLINK-4171,1 52878U 22062BA  23118.48634181  .00005150  00000-0  34147-3 0  9995,2 52878  53.2180  30.7127 0001097  98.8673 261.2443 15.08833937 48617,6917.899,95.438,540.523,539.005,0.0
52878.0,STARLINK-4171,PAYLOAD,2023-04-29 03:34:10,15.08850086,0.0001081,53.2186,27.7366,84.7222,275.3893,7.7351e-06,-1.65e-06,0.0,0 STARLINK-4171,1 52878U 22062BA  23119.14873767 -.00000165  00000-0  77351-5 0  9992,2 52878  53.2186  27.7366 0001081  84.7222 275.3893 15.08850086 48227,6917.85,95.437,540.462,538.967,0.0
52878.0,STARLINK-4171,PAYLOAD,2023-04-30 03:24:57,15.08852319,0.0001253,53.2181,23.2748,88.8425,271.271,-5.9304e-05,-1.232e-05,0.0,0 STARLINK-4171,1 52878U 22062BA  23120.14233299 -.00001232  00000-0 -59304-4 0  9998,2 52878  53.2181  23.2748 0001253  88.8425 271.2710 15.08852319 48862,6917.843,95.437,540.575,538.841,0.0
52878.0,STARLINK-4171,PAYLOAD,2023-04-30 20:54:12,15.08832257,0.0001117,53.2186,20.003,98.4563,261.6556,0.00013276,1.825e-05,0.0,0 STARLINK-4171,1 52878U 22062BA  23120.87098212  .00001825  00000-0  13276-3 0  9995,2 52878  53.2186  20.0030 0001117  98.4563 261.6556 15.08832257 48977,6917.904,95.438,540.542,538.996,0.0
52878.0,STARLINK-4171,PAYLOAD,2023-05-01 03:15:45,15.08840606,0.0001291,53.2188,18.8135,85.5346,274.5793,3.9756e-05,3.45e-06,0.0,0 STARLINK-4171,1 52878U 22062BA  23121.13594009  .00000345  00000-0  39756-4 0  9998,2 52878  53.2188  18.8135 0001291  85.5346 274.5793 15.08840606 48523,6917.879,95.438,540.637,538.85,0.0
52878.0,STARLINK-4171,PAYLOAD,2023-05-01 22:20:22,15.08841213,0.0001306,53.219,15.2446,88.9236,271.1906,5.4938e-05,5.87e-06,0.0,0 STARLINK-4171,1 52878U 22062BA  23121.93082015  .00000587  00000-0  54938-4 0  9992,2 52878  53.2190  15.2446 0001306  88.9236 271.1906 15.08841213 49136,6917.877,95.437,540.645,538.838,0.0
52878.0,STARLINK-4171,PAYLOAD,2023-05-02 20:35:46,15.08839956,0.0001226,53.219,11.0824,90.3461,269.7671,7.3416e-05,8.81e-06,0.0,0 STARLINK-4171,1 52878U 22062BA  23122.85818088  .00000881  00000-0  73416-4 0  9990,2 52878  53.2190  11.0824 0001226  90.3461 269.7671 15.08839956 48781,6917.881,95.438,540.594,538.897,0.0
52878.0,STARLINK-4171,PAYLOAD,2023-05-03 02:57:19,15.08844156,0.0001117,53.2192,9.8963,82.3642,277.7477,0.00012171,1.65e-05,0.0,0 STARLINK-4171,1 52878U 22062BA  23123.12313785  .00001650  00000-0  12171-3 0  9990,2 52878  53.2192   9.8963 0001117  82.3642 277.7477 15.08844156 49314,6917.868,95.437,540.505,538.96,0.0
52878.0,STARLINK-4171,PAYLOAD,2023-05-03 09:18:52,15.08832844,0.0001355,53.2183,8.7025,80.5846,279.5299,2.2449e-05,6.9e-07,0.0,0 STARLINK-4171,1 52878U 22062BA  23123.38810922  .00000069  00000-0  22449-4 0  9996,2 52878  53.2183   8.7025 0001355  80.5846 279.5299 15.08832844 49358,6917.902,95.438,540.705,538.83,0.0
52878.0,STARLINK-4171,PAYLOAD,2023-05-03 22:01:57,15.08838653,0.0001104,53.2178,6.322,78.2217,281.8899,1.6402e-05,-2.7e-07,0.0,0 STARLINK-4171,1 52878U 22062BA  23123.91802479 -.00000027  00000-0  16402-4 0  9990,2 52878  53.2178   6.3220 0001104  78.2217 281.8899 15.08838653 48941,6917.885,95.438,540.513,538.986,0.0
52878.0,STARLINK-4171,PAYLOAD,2023-05-04 01:12:43,15.08841802,0.000115,53.2183,5.7302,81.494,278.6182,4.1856e-05,3.78e-06,0.0,0 STARLINK-4171,1 52878U 22062BA  23124.05050242  .00000378  00000-0  41856-4 0  9998,2 52878  53.2183   5.7302 0001150  81.4940 278.6182 15.08841802 49457,6917.875,95.437,540.535,538.944,0.0
52878.0,STARLINK-4171,PAYLOAD,2023-05-04 09:09:39,15.08840142,9.77e-05,53.218,4.2456,84.5035,275.6069,6.9066e-05,8.12e-06,0.0,0 STARLINK-4171,1 52878U 22062BA  23124.38170317  .00000812  00000-0  69066-4 0  9996,2 52878  53.2180   4.2456 0000977  84.5035 275.6069 15.08840142 49012,6917.88,95.438,540.421,539.069,0.0
52878.0,STARLINK-4171,PAYLOAD,2023-05-04 21:52:44,15.08841598,9.14e-05,53.2171,1.8662,81.4515,278.6581,5.3657e-05,5.66e-06,0.0,0 STARLINK-4171,1 52878U 22062BA  23124.91162308  .00000566  00000-0  53657-4 0  9991,2 52878  53.2171   1.8662 0000914  81.4515 278.6581 15.08841598 49090,6917.876,95.437,540.373,539.108,0.0
52878.0,STARLINK-4171,PAYLOAD,2023-05-05 21:43:31,15.08834954,0.0001072,53.2187,357.4054,91.3347,268.7768,7.4692e-05,9.01e-06,0.0,0 STARLINK-4171,1 52878U 22062BA  23125.90522923  .00000901  00000-0  74692-4 0  9999,2 52878  53.2187 357.4054 0001072  91.3347 268.7768 15.08834954 49737,6917.896,95.438,540.502,539.019,0.0
52878.0,STARLINK-4171,PAYLOAD,2023-05-07 00:45:03,15.08859756,0.0001083,53.2177,352.3495,87.3753,272.7363,0.00017531,2.505e-05,0.0,0 STARLINK-4171,1 52878U 22062BA  23127.03129154  .00002505  00000-0  17531-3 0  9994,2 52878  53.2177 352.3495 0001083  87.3753 272.7363 15.08859756 49909,6917.82,95.436,540.434,538.936,0.0
52878.0,STARLINK-4171,PAYLOAD,2023-05-07 21:25:06,15.08837802,0.0001161,53.2168,348.4845,86.842,273.2705,9.5493e-05,1.232e-05,0.0,0 STARLINK-4171,1 52878U 22062BA  23127.89243086  .00001232  00000-0  95493-4 0  9999,2 52878  53.2168 348.4845 0001161  86.8420 273.2705 15.08837802 50036,6917.887,95.438,540.555,538.949,0.0
52878.0,STARLINK-4171,PAYLOAD,2023-05-08 21:15:52,15.08853403,0.0001195,53.216,344.0257,85.063,275.0498,0.00046892,7.186e-05,0.0,0 STARLINK-4171,1 52878U 22062BA  23128.88602598  .00007186  00000-0  46892-3 0  9998,2 52878  53.2160 344.0257 0001195  85.0630 275.0498 15.08853403 50188,6917.839,95.437,540.531,538.878,0.0
52878.0,STARLINK-4171,PAYLOAD,2023-05-09 02:02:01,15.0886408,0.0001269,53.2164,343.1321,87.3318,272.7819,0.00072502,0.00011277,0.0,0 STARLINK-4171,1 52878U 22062BA  23129.08474211  .00011277  00000-0  72502-3 0  9993,2 52878  53.2164 343.1321 0001269  87.3318 272.7819 15.08864080 49726,6917.807,95.436,540.55,538.794,0.0
